CCSDS_OMM_VERS = 2.0
CREATION_DATE  = 
ORIGINATOR     = 

OBJECT_NAME    = CZ-2C R/B
OBJECT_ID      = 2022-132E
CENTER_NAME    = EARTH
REF_FRAME      = TEME
TIME_SYSTEM    = UTC
MEAN_ELEMENT_THEORY = SGP/SGP4

EPOCH          = 2026-02-19T22:26:32.117280
MEAN_MOTION    = 15.60227388
ECCENTRICITY   = .00200717
INCLINATION    = 97.2959
RA_OF_ASC_NODE = 53.7371
ARG_OF_PERICENTER = 149.0606
MEAN_ANOMALY   = 211.1838

EPHEMERIS_TYPE = 0
CLASSIFICATION_TYPE = U
NORAD_CAT_ID   = 54039
ELEMENT_SET_NO = 999
REV_AT_EPOCH   = 18760
BSTAR          = .43917279E-3
MEAN_MOTION_DOT = .36115E-3
MEAN_MOTION_DDOT = 0

CCSDS_OMM_VERS = 2.0
CREATION_DATE  = 
ORIGINATOR     = 

OBJECT_NAME    = GSLV R/B
OBJECT_ID      = 2022-138AN
CENTER_NAME    = EARTH
REF_FRAME      = TEME
TIME_SYSTEM    = UTC
MEAN_ELEMENT_THEORY = SGP/SGP4

EPOCH          = 2026-02-19T20:52:02.354016
MEAN_MOTION    = 14.96630615
ECCENTRICITY   = .00204147
INCLINATION    = 87.3881
RA_OF_ASC_NODE = 172.3250
ARG_OF_PERICENTER = 210.9359
MEAN_ANOMALY   = 149.0671

EPHEMERIS_TYPE = 0
CLASSIFICATION_TYPE = U
NORAD_CAT_ID   = 54149
ELEMENT_SET_NO = 999
REV_AT_EPOCH   = 18126
BSTAR          = .31428985E-3
MEAN_MOTION_DOT = .3623E-4
MEAN_MOTION_DDOT = 0

CCSDS_OMM_VERS = 2.0
CREATION_DATE  = 
ORIGINATOR     = 

OBJECT_NAME    = XRISM
OBJECT_ID      = 2023-137A
CENTER_NAME    = EARTH
REF_FRAME      = TEME
TIME_SYSTEM    = UTC
MEAN_ELEMENT_THEORY = SGP/SGP4

EPOCH          = 2026-02-19T08:19:24.378816
MEAN_MOTION    = 15.11260329
ECCENTRICITY   = .00083094
INCLINATION    = 31.0030
RA_OF_ASC_NODE = 42.2797
ARG_OF_PERICENTER = 216.4510
MEAN_ANOMALY   = 143.5563

EPHEMERIS_TYPE = 0
CLASSIFICATION_TYPE = U
NORAD_CAT_ID   = 57800
ELEMENT_SET_NO = 999
REV_AT_EPOCH   = 13501
BSTAR          = .28918281E-3
MEAN_MOTION_DOT = .5086E-4
MEAN_MOTION_DDOT = 0

CCSDS_OMM_VERS = 2.0
CREATION_DATE  = 
ORIGINATOR     = 

OBJECT_NAME    = ACS3
OBJECT_ID      = 2024-077B
CENTER_NAME    = EARTH
REF_FRAME      = TEME
TIME_SYSTEM    = UTC
MEAN_ELEMENT_THEORY = SGP/SGP4

EPOCH          = 2026-02-19T20:26:11.443776
MEAN_MOTION    = 13.88807433
ECCENTRICITY   = .00492018
INCLINATION    = 97.2171
RA_OF_ASC_NODE = 355.9744
ARG_OF_PERICENTER = 128.4585
MEAN_ANOMALY   = 232.1009

EPHEMERIS_TYPE = 0
CLASSIFICATION_TYPE = U
NORAD_CAT_ID   = 59588
ELEMENT_SET_NO = 999
REV_AT_EPOCH   = 9172
BSTAR          = .12651125E-1
MEAN_MOTION_DOT = .15424E-3
MEAN_MOTION_DDOT = 0

CCSDS_OMM_VERS = 2.0
CREATION_DATE  = 
ORIGINATOR     = 

OBJECT_NAME    = SZ-21 MODULE
OBJECT_ID      = 2025-246C
CENTER_NAME    = EARTH
REF_FRAME      = TEME
TIME_SYSTEM    = UTC
MEAN_ELEMENT_THEORY = SGP/SGP4

EPOCH          = 2026-02-19T18:59:57.289920
MEAN_MOTION    = 15.67126682
ECCENTRICITY   = .00017784
INCLINATION    = 41.4758
RA_OF_ASC_NODE = 313.4169
ARG_OF_PERICENTER = 294.9918
MEAN_ANOMALY   = 65.0739

EPHEMERIS_TYPE = 0
CLASSIFICATION_TYPE = U
NORAD_CAT_ID   = 66515
ELEMENT_SET_NO = 999
REV_AT_EPOCH   = 1526
BSTAR          = .30543211E-3
MEAN_MOTION_DOT = .33426E-3
MEAN_MOTION_DDOT = 0

